{"type": "FeatureCollection", "features": [ {"type": "Feature", "properties": {"norad_id": 66696, "name": "IRIDE FM2", "group": "last-30-days", "lat": -82.48906225779673, "lon": 149.12722083306636, "alt_km": 519.4538627138882, "timestamp": "2025-12-21T03:56:49.615275+00:00", "meta": {"OBJECT_NAME": "IRIDE FM2", "OBJECT_ID": "2025-276AG", "EPOCH": "2025-12-20T18:50:33.783072", "MEAN_MOTION": 15.17378851, "ECCENTRICITY": 0.0002439, "INCLINATION": 97.4398, "RA_OF_ASC_NODE": 66.4001, "ARG_OF_PERICENTER": 279.624, "MEAN_ANOMALY": 80.4718, "EPHEMERIS_TYPE": 0, "CLASSIFICATION_TYPE": "U", "NORAD_CAT_ID": 66696, "ELEMENT_SET_NO": 999, "REV_AT_EPOCH": 334, "BSTAR": 0.00032105, "MEAN_MOTION_DOT": 6.347e-05, "MEAN_MOTION_DDOT": 0}, "tle": {"line1": "1 66696U 25276AG  25354.78511323  .00006347  00000+0  32105-3 0  9997", "line2": "2 66696  97.4398  66.4001 0002439 279.6240  80.4718 15.17378851  3344"}}, "geometry": {"type": "Point", "coordinates": [149.12722083306636, -82.48906225779673]}}, {"type": "Feature", "properties": {"norad_id": 66697, "name": "IRIDE FM3", "group": "last-30-days", "lat": -28.800534047297432, "lon": 70.91813880198836, "alt_km": 518.1567646004023, "timestamp": "2025-12-21T03:56:49.615284+00:00", "meta": {"OBJECT_NAME": "IRIDE FM3", "OBJECT_ID": "2025-276AH", "EPOCH": "2025-12-20T18:35:00.620736", "MEAN_MOTION": 15.1812615, "ECCENTRICITY": 0.0001046, "INCLINATION": 97.4395, "RA_OF_ASC_NODE": 66.415, "ARG_OF_PERICENTER": 158.6892, "MEAN_ANOMALY": 201.4385, "EPHEMERIS_TYPE": 0, "CLASSIFICATION_TYPE": "U", "NORAD_CAT_ID": 66697, "ELEMENT_SET_NO": 999, "REV_AT_EPOCH": 334, "BSTAR": 0.00032707, "MEAN_MOTION_DOT": 6.608e-05, "MEAN_MOTION_DDOT": 0}, "tle": {"line1": "1 66697U 25276AH  25354.77431274  .00006608  00000+0  32707-3 0  9991", "line2": "2 66697  97.4395  66.4150 0001046 158.6892 201.4385 15.18126150  3348"}}, "geometry": {"type": "Point", "coordinates": [70.91813880198836, -28.800534047297432]}}, {"type": "Feature", "properties": {"norad_id": 66698, "name": "IRIDE FM4", "group": "last-30-days", "lat": -81.86111726657386, "lon": -179.24599031252328, "alt_km": 519.4563068636908, "timestamp": "2025-12-21T03:56:49.615295+00:00", "meta": {"OBJECT_NAME": "IRIDE FM4", "OBJECT_ID": "2025-276AJ", "EPOCH": "2025-12-20T14:06:46.478016", "MEAN_MOTION": 15.17302391, "ECCENTRICITY": 0.0002742, "INCLINATION": 97.4394, "RA_OF_ASC_NODE": 66.2059, "ARG_OF_PERICENTER": 271.543, "MEAN_ANOMALY": 88.549, "EPHEMERIS_TYPE": 0, "CLASSIFICATION_TYPE": "U", "NORAD_CAT_ID": 66698, "ELEMENT_SET_NO": 999, "REV_AT_EPOCH": 331, "BSTAR": 0.00031125, "MEAN_MOTION_DOT": 6.138e-05, "MEAN_MOTION_DDOT": 0}, "tle": {"line1": "1 66698U 25276AJ  25354.58803794  .00006138  00000+0  31125-3 0  9992", "line2": "2 66698  97.4394  66.2059 0002742 271.5430  88.5490 15.17302391  3311"}}, "geometry": {"type": "Point", "coordinates": [-179.24599031252328, -81.86111726657386]}}, {"type": "Feature", "properties": {"norad_id": 66699, "name": "IRIDE FM5", "group": "last-30-days", "lat": -82.13823463375316, "lon": 175.6652721414066, "alt_km": 519.530309304294, "timestamp": "2025-12-21T03:56:49.615304+00:00", "meta": {"OBJECT_NAME": "IRIDE FM5", "OBJECT_ID": "2025-276AK", "EPOCH": "2025-12-20T15:41:32.697024", "MEAN_MOTION": 15.17316331, "ECCENTRICITY": 0.0002599, "INCLINATION": 97.4381, "RA_OF_ASC_NODE": 66.2738, "ARG_OF_PERICENTER": 271.4431, "MEAN_ANOMALY": 88.6505, "EPHEMERIS_TYPE": 0, "CLASSIFICATION_TYPE": "U", "NORAD_CAT_ID": 66699, "ELEMENT_SET_NO": 999, "REV_AT_EPOCH": 332, "BSTAR": 7.634e-05, "MEAN_MOTION_DOT": 1.455e-05, "MEAN_MOTION_DDOT": 0}, "tle": {"line1": "1 66699U 25276AK  25354.65385066  .00001455  00000+0  76340-4 0  9994", "line2": "2 66699  97.4381  66.2738 0002599 271.4431  88.6505 15.17316331  3320"}}, "geometry": {"type": "Point", "coordinates": [175.6652721414066, -82.13823463375316]}}, {"type": "Feature", "properties": {"norad_id": 66700, "name": "IRIDE FM6", "group": "last-30-days", "lat": -25.733143384432562, "lon": 70.42200529033272, "alt_km": 518.0578635618767, "timestamp": "2025-12-21T03:56:49.615314+00:00", "meta": {"OBJECT_NAME": "IRIDE FM6", "OBJECT_ID": "2025-276AL", "EPOCH": "2025-12-20T18:34:12.725760", "MEAN_MOTION": 15.18178434, "ECCENTRICITY": 0.0001474, "INCLINATION": 97.4431, "RA_OF_ASC_NODE": 66.425, "ARG_OF_PERICENTER": 167.5217, "MEAN_ANOMALY": 192.6054, "EPHEMERIS_TYPE": 0, "CLASSIFICATION_TYPE": "U", "NORAD_CAT_ID": 66700, "ELEMENT_SET_NO": 999, "REV_AT_EPOCH": 334, "BSTAR": 0.00033732, "MEAN_MOTION_DOT": 6.828e-05, "MEAN_MOTION_DDOT": 0}, "tle": {"line1": "1 66700U 25276AL  25354.77375840  .00006828  00000+0  33732-3 0  9995", "line2": "2 66700  97.4431  66.4250 0001474 167.5217 192.6054 15.18178434  3346"}}, "geometry": {"type": "Point", "coordinates": [70.42200529033272, -25.733143384432562]}}, {"type": "Feature", "properties": {"norad_id": 66701, "name": "IRIDE FM7", "group": "last-30-days", "lat": -82.12836310213662, "lon": 175.76805558743828, "alt_km": 519.2340735062671, "timestamp": "2025-12-21T03:56:49.615323+00:00", "meta": {"OBJECT_NAME": "IRIDE FM7", "OBJECT_ID": "2025-276AM", "EPOCH": "2025-12-20T14:06:35.839584", "MEAN_MOTION": 15.17337746, "ECCENTRICITY": 0.0002906, "INCLINATION": 97.4432, "RA_OF_ASC_NODE": 66.215, "ARG_OF_PERICENTER": 267.7104, "MEAN_ANOMALY": 92.3797, "EPHEMERIS_TYPE": 0, "CLASSIFICATION_TYPE": "U", "NORAD_CAT_ID": 66701, "ELEMENT_SET_NO": 999, "REV_AT_EPOCH": 331, "BSTAR": 0.00032999, "MEAN_MOTION_DOT": 6.519e-05, "MEAN_MOTION_DDOT": 0}, "tle": {"line1": "1 66701U 25276AM  25354.58791481  .00006519  00000+0  32999-3 0  9999", "line2": "2 66701  97.4432  66.2150 0002906 267.7104  92.3797 15.17337746  3313"}}, "geometry": {"type": "Point", "coordinates": [175.76805558743828, -82.12836310213662]}}, {"type": "Feature", "properties": {"norad_id": 66702, "name": "IRIDE FM8", "group": "last-30-days", "lat": -82.37536787264567, "lon": 169.27577130393, "alt_km": 519.3088051728919, "timestamp": "2025-12-21T03:56:49.615332+00:00", "meta": {"OBJECT_NAME": "IRIDE FM8", "OBJECT_ID": "2025-276AN", "EPOCH": "2025-12-20T14:06:21.765024", "MEAN_MOTION": 15.17349141, "ECCENTRICITY": 0.0002762, "INCLINATION": 97.4408, "RA_OF_ASC_NODE": 66.2083, "ARG_OF_PERICENTER": 276.1118, "MEAN_ANOMALY": 83.9801, "EPHEMERIS_TYPE": 0, "CLASSIFICATION_TYPE": "U", "NORAD_CAT_ID": 66702, "ELEMENT_SET_NO": 999, "REV_AT_EPOCH": 331, "BSTAR": 0.00032224, "MEAN_MOTION_DOT": 6.366e-05, "MEAN_MOTION_DDOT": 0}, "tle": {"line1": "1 66702U 25276AN  25354.58775191  .00006366  00000+0  32224-3 0  9991", "line2": "2 66702  97.4408  66.2083 0002762 276.1118  83.9801 15.17349141  3315"}}, "geometry": {"type": "Point", "coordinates": [169.27577130393, -82.37536787264567]}}, {"type": "Feature", "properties": {"norad_id": 66703, "name": "PELICAN-6", "group": "last-30-days", "lat": -80.64644579049659, "lon": 119.29452322559645, "alt_km": 520.6613327912437, "timestamp": "2025-12-21T03:56:49.615340+00:00", "meta": {"OBJECT_NAME": "PELICAN-6", "OBJECT_ID": "2025-276AP", "EPOCH": "2025-12-20T18:49:18.680736", "MEAN_MOTION": 15.17322393, "ECCENTRICITY": 9.45e-05, "INCLINATION": 97.4415, "RA_OF_ASC_NODE": 66.4058, "ARG_OF_PERICENTER": 261.7088, "MEAN_ANOMALY": 98.4038, "EPHEMERIS_TYPE": 0, "CLASSIFICATION_TYPE": "U", "NORAD_CAT_ID": 66703, "ELEMENT_SET_NO": 999, "REV_AT_EPOCH": 334, "BSTAR": 0.00026486, "MEAN_MOTION_DOT": 5.216e-05, "MEAN_MOTION_DDOT": 0}, "tle": {"line1": "1 66703U 25276AP  25354.78424399  .00005216  00000+0  26486-3 0  9991", "line2": "2 66703  97.4415  66.4058 0000945 261.7088  98.4038 15.17322393  3341"}}, "geometry": {"type": "Point", "coordinates": [119.29452322559645, -80.64644579049659]}}, {"type": "Feature", "properties": {"norad_id": 66704, "name": "FLOCK 4H-1", "group": "last-30-days", "lat": -32.7470970626716, "lon": 71.61278968078814, "alt_km": 518.9287250457519, "timestamp": "2025-12-21T03:56:49.615351+00:00", "meta": {"OBJECT_NAME": "FLOCK 4H-1", "OBJECT_ID": "2025-276AQ", "EPOCH": "2025-12-20T18:36:02.285280", "MEAN_MOTION": 15.18052731, "ECCENTRICITY": 0.0001688, "INCLINATION": 97.4391, "RA_OF_ASC_NODE": 66.4094, "ARG_OF_PERICENTER": 177.4553, "MEAN_ANOMALY": 182.669, "EPHEMERIS_TYPE": 0, "CLASSIFICATION_TYPE": "U", "NORAD_CAT_ID": 66704, "ELEMENT_SET_NO": 999, "REV_AT_EPOCH": 334, "BSTAR": 0.00032804, "MEAN_MOTION_DOT": 6.614e-05, "MEAN_MOTION_DDOT": 0}, "tle": {"line1": "1 66704U 25276AQ  25354.77502645  .00006614  00000+0  32804-3 0  9996", "line2": "2 66704  97.4391  66.4094 0001688 177.4553 182.6690 15.18052731  3347"}}, "geometry": {"type": "Point", "coordinates": [71.61278968078814, -32.7470970626716]}}, {"type": "Feature", "properties": {"norad_id": 66705, "name": "FLOCK 4H-2", "group": "last-30-days", "lat": -30.55789035782131, "lon": 71.21746837006533, "alt_km": 518.3256976336706, "timestamp": "2025-12-21T03:56:49.615360+00:00", "meta": {"OBJECT_NAME": "FLOCK 4H-2", "OBJECT_ID": "2025-276AR", "EPOCH": "2025-12-20T18:35:28.249728", "MEAN_MOTION": 15.18102919, "ECCENTRICITY": 0.0001033, "INCLINATION": 97.4385, "RA_OF_ASC_NODE": 66.4102, "ARG_OF_PERICENTER": 161.3115, "MEAN_ANOMALY": 198.8157, "EPHEMERIS_TYPE": 0, "CLASSIFICATION_TYPE": "U", "NORAD_CAT_ID": 66705, "ELEMENT_SET_NO": 999, "REV_AT_EPOCH": 334, "BSTAR": 0.00031898, "MEAN_MOTION_DOT": 6.439e-05, "MEAN_MOTION_DDOT": 0}, "tle": {"line1": "1 66705U 25276AR  25354.77463252  .00006439  00000+0  31898-3 0  9994", "line2": "2 66705  97.4385  66.4102 0001033 161.3115 198.8157 15.18102919  3342"}}, "geometry": {"type": "Point", "coordinates": [71.21746837006533, -30.55789035782131]}}]}